{
  "type": "FeatureCollection",
  "features": [
    {
      "type": "Feature",
      "properties": {
        "norad_id": 34478,
        "name": "COSMOS 2251 DEB",
        "group": "cosmos-2251-debris",
        "lat": 46.25104270165699,
        "lon": 165.64191078724724,
        "alt_km": 538.1136180777421,
        "timestamp": "2025-12-14T14:39:29.763586+00:00",
        "meta_object_name": "COSMOS 2251 DEB",
        "meta_object_id": "1993-036TX",
        "meta_epoch": "2025-12-13T11:43:14.831904",
        "meta_mean_motion": 15.08104433,
        "meta_eccentricity": 0.00348289,
        "meta_inclination": 74.0411,
        "meta_ra_of_asc_node": 5.3446,
        "meta_arg_of_pericenter": 226.2414,
        "meta_mean_anomaly": 294.0144,
        "meta_ephemeris_type": 0,
        "meta_classification_type": "U",
        "meta_norad_cat_id": 34478,
        "meta_element_set_no": 999,
        "meta_rev_at_epoch": 88984,
        "meta_bstar": 0.0041816982,
        "meta_mean_motion_dot": 0.00065996,
        "meta_mean_motion_ddot": 0,
        "tle_line1": "1 34478U 93036TX  25347.48836611  .00065996  00000+0  41817-2 0  9992",
        "tle_line2": "2 34478  74.0411   5.3446 0034828 226.2414 294.0144 15.08104433889843"
      },
      "geometry": {
        "type": "Point",
        "coordinates": [
          165.64191078724724,
          46.25104270165699
        ]
      }
    },
    {
      "type": "Feature",
      "properties": {
        "norad_id": 34481,
        "name": "COSMOS 2251 DEB",
        "group": "cosmos-2251-debris",
        "lat": -57.26185910922343,
        "lon": 23.48765506991463,
        "alt_km": 776.4712402748728,
        "timestamp": "2025-12-14T14:39:29.763596+00:00",
        "meta_object_name": "COSMOS 2251 DEB",
        "meta_object_id": "1993-036UA",
        "meta_epoch": "2025-12-13T14:23:07.319328",
        "meta_mean_motion": 14.32555493,
        "meta_eccentricity": 0.00707013,
        "meta_inclination": 73.9807,
        "meta_ra_of_asc_node": 51.8816,
        "meta_arg_of_pericenter": 226.0766,
        "meta_mean_anomaly": 258.3682,
        "meta_ephemeris_type": 0,
        "meta_classification_type": "U",
        "meta_norad_cat_id": 34481,
        "meta_element_set_no": 999,
        "meta_rev_at_epoch": 87461,
        "meta_bstar": 0.00091001376,
        "meta_mean_motion_dot": 2.512e-05,
        "meta_mean_motion_ddot": 0,
        "tle_line1": "1 34481U 93036UA  25347.59939027  .00002512  00000+0  91001-3 0  9999",
        "tle_line2": "2 34481  73.9807  51.8816 0070701 226.0766 258.3682 14.32555493874610"
      },
      "geometry": {
        "type": "Point",
        "coordinates": [
          23.48765506991463,
          -57.26185910922343
        ]
      }
    },
    {
      "type": "Feature",
      "properties": {
        "norad_id": 34482,
        "name": "COSMOS 2251 DEB",
        "group": "cosmos-2251-debris",
        "lat": -4.168342612077014,
        "lon": -141.22521075578695,
        "alt_km": 659.023482598649,
        "timestamp": "2025-12-14T14:39:29.763606+00:00",
        "meta_object_name": "COSMOS 2251 DEB",
        "meta_object_id": "1993-036UB",
        "meta_epoch": "2025-12-13T22:24:55.599840",
        "meta_mean_motion": 14.69222259,
        "meta_eccentricity": 0.00448762,
        "meta_inclination": 74.0374,
        "meta_ra_of_asc_node": 221.28,
        "meta_arg_of_pericenter": 281.0339,
        "meta_mean_anomaly": 96.0655,
        "meta_ephemeris_type": 0,
        "meta_classification_type": "U",
        "meta_norad_cat_id": 34482,
        "meta_element_set_no": 999,
        "meta_rev_at_epoch": 88205,
        "meta_bstar": 0.0020255879,
        "meta_mean_motion_dot": 0.00012109,
        "meta_mean_motion_ddot": 0,
        "tle_line1": "1 34482U 93036UB  25347.93397685  .00012109  00000+0  20256-2 0  9992",
        "tle_line2": "2 34482  74.0374 221.2800 0044876 281.0339  96.0655 14.69222259882054"
      },
      "geometry": {
        "type": "Point",
        "coordinates": [
          -141.22521075578695,
          -4.168342612077014
        ]
      }
    },
    {
      "type": "Feature",
      "properties": {
        "norad_id": 34544,
        "name": "COSMOS 2251 DEB",
        "group": "cosmos-2251-debris",
        "lat": -6.954030082787489,
        "lon": 23.01717209157271,
        "alt_km": 841.4665884943752,
        "timestamp": "2025-12-14T14:39:29.763616+00:00",
        "meta_object_name": "COSMOS 2251 DEB",
        "meta_object_id": "1993-036UE",
        "meta_epoch": "2025-12-13T23:53:30.258240",
        "meta_mean_motion": 13.5466391,
        "meta_eccentricity": 0.03840916,
        "meta_inclination": 73.914,
        "meta_ra_of_asc_node": 201.9961,
        "meta_arg_of_pericenter": 230.2101,
        "meta_mean_anomaly": 200.3541,
        "meta_ephemeris_type": 0,
        "meta_classification_type": "U",
        "meta_norad_cat_id": 34544,
        "meta_element_set_no": 999,
        "meta_rev_at_epoch": 82899,
        "meta_bstar": 0.0003836434,
        "meta_mean_motion_dot": 3.97e-06,
        "meta_mean_motion_ddot": 0,
        "tle_line1": "1 34544U 93036UE  25347.99548910  .00000397  00000+0  38364-3 0  9992",
        "tle_line2": "2 34544  73.9140 201.9961 0384091 230.2101 200.3541 13.54663910828997"
      },
      "geometry": {
        "type": "Point",
        "coordinates": [
          23.01717209157271,
          -6.954030082787489
        ]
      }
    },
    {
      "type": "Feature",
      "properties": {
        "norad_id": 34546,
        "name": "COSMOS 2251 DEB",
        "group": "cosmos-2251-debris",
        "lat": 28.92509090489941,
        "lon": -105.19783465374059,
        "alt_km": 733.8415281887083,
        "timestamp": "2025-12-14T14:39:29.763626+00:00",
        "meta_object_name": "COSMOS 2251 DEB",
        "meta_object_id": "1993-036UG",
        "meta_epoch": "2025-12-13T20:47:45.535200",
        "meta_mean_motion": 14.45419788,
        "meta_eccentricity": 0.00219489,
        "meta_inclination": 74.0311,
        "meta_ra_of_asc_node": 247.0849,
        "meta_arg_of_pericenter": 320.7003,
        "meta_mean_anomaly": 158.1523,
        "meta_ephemeris_type": 0,
        "meta_classification_type": "U",
        "meta_norad_cat_id": 34546,
        "meta_element_set_no": 999,
        "meta_rev_at_epoch": 88042,
        "meta_bstar": 0.00077388853,
        "meta_mean_motion_dot": 2.706e-05,
        "meta_mean_motion_ddot": 0,
        "tle_line1": "1 34546U 93036UG  25347.86649925  .00002706  00000+0  77389-3 0  9994",
        "tle_line2": "2 34546  74.0311 247.0849 0021948 320.7003 158.1523 14.45419788880421"
      },
      "geometry": {
        "type": "Point",
        "coordinates": [
          -105.19783465374059,
          28.92509090489941
        ]
      }
    },
    {
      "type": "Feature",
      "properties": {
        "norad_id": 34547,
        "name": "COSMOS 2251 DEB",
        "group": "cosmos-2251-debris",
        "lat": 38.023626299827,
        "lon": 110.02178447305766,
        "alt_km": 659.0427512717488,
        "timestamp": "2025-12-14T14:39:29.763636+00:00",
        "meta_object_name": "COSMOS 2251 DEB",
        "meta_object_id": "1993-036UH",
        "meta_epoch": "2025-12-13T14:01:01.602912",
        "meta_mean_motion": 14.72375301,
        "meta_eccentricity": 0.00172507,
        "meta_inclination": 74.03,
        "meta_ra_of_asc_node": 99.08,
        "meta_arg_of_pericenter": 178.6076,
        "meta_mean_anomaly": 181.5147,
        "meta_ephemeris_type": 0,
        "meta_classification_type": "U",
        "meta_norad_cat_id": 34547,
        "meta_element_set_no": 999,
        "meta_rev_at_epoch": 88534,
        "meta_bstar": 0.0022070636,
        "meta_mean_motion_dot": 0.00014005,
        "meta_mean_motion_ddot": 0,
        "tle_line1": "1 34547U 93036UH  25347.58404633  .00014005  00000+0  22071-2 0  9991",
        "tle_line2": "2 34547  74.0300  99.0800 0017250 178.6076 181.5147 14.72375301885343"
      },
      "geometry": {
        "type": "Point",
        "coordinates": [
          110.02178447305766,
          38.023626299827
        ]
      }
    },
    {
      "type": "Feature",
      "properties": {
        "norad_id": 34553,
        "name": "COSMOS 2251 DEB",
        "group": "cosmos-2251-debris",
        "lat": -17.199532348133424,
        "lon": 13.41938054375604,
        "alt_km": 699.807232143362,
        "timestamp": "2025-12-14T14:39:29.763646+00:00",
        "meta_object_name": "COSMOS 2251 DEB",
        "meta_object_id": "1993-036UP",
        "meta_epoch": "2025-12-13T16:53:04.782912",
        "meta_mean_motion": 14.57736965,
        "meta_eccentricity": 0.00192835,
        "meta_inclination": 74.025,
        "meta_ra_of_asc_node": 190.0575,
        "meta_arg_of_pericenter": 267.3421,
        "meta_mean_anomaly": 211.5678,
        "meta_ephemeris_type": 0,
        "meta_classification_type": "U",
        "meta_norad_cat_id": 34553,
        "meta_element_set_no": 999,
        "meta_rev_at_epoch": 88110,
        "meta_bstar": 0.0012994773,
        "meta_mean_motion_dot": 5.927e-05,
        "meta_mean_motion_ddot": 0,
        "tle_line1": "1 34553U 93036UP  25347.70352758  .00005927  00000+0  12995-2 0  9999",
        "tle_line2": "2 34553  74.0250 190.0575 0019283 267.3421 211.5678 14.57736965881106"
      },
      "geometry": {
        "type": "Point",
        "coordinates": [
          13.41938054375604,
          -17.199532348133424
        ]
      }
    }
  ]
}